{
"type": "FeatureCollection",
"name": "tree_points",
"features": [
{ "type": "Feature", "properties": { "confidence": 0.6899094, "tile_id": 0 }, "geometry": { "type": "Point", "coordinates": [ 3226.474934895833485, 2489.75323486328125 ] } },
{ "type": "Feature", "properties": { "confidence": 0.6765942, "tile_id": 0 }, "geometry": { "type": "Point", "coordinates": [ 2704.63126627604197, 443.540001392364502 ] } },
{ "type": "Feature", "properties": { "confidence": 0.66967767, "tile_id": 0 }, "geometry": { "type": "Point", "coordinates": [ 1083.23773193359375, 1101.973402976989746 ] } },
{ "type": "Feature", "properties": { "confidence": 0.65978187, "tile_id": 0 }, "geometry": { "type": "Point", "coordinates": [ 3215.213134765625, 1142.408645629882812 ] } },
{ "type": "Feature", "properties": { "confidence": 0.63284236, "tile_id": 0 }, "geometry": { "type": "Point", "coordinates": [ 2220.470296223958485, 440.550458908081055 ] } },
{ "type": "Feature", "properties": { "confidence": 0.63152552, "tile_id": 0 }, "geometry": { "type": "Point", "coordinates": [ 3742.08121744791697, 479.806459426879883 ] } },
{ "type": "Feature", "properties": { "confidence": 0.62366754, "tile_id": 0 }, "geometry": { "type": "Point", "coordinates": [ 1732.10039265950536, 3148.997390747070312 ] } },
{ "type": "Feature", "properties": { "confidence": 0.61856568, "tile_id": 0 }, "geometry": { "type": "Point", "coordinates": [ 3199.332600911458485, 483.438969135284424 ] } },
{ "type": "Feature", "properties": { "confidence": 0.6134389, "tile_id": 0 }, "geometry": { "type": "Point", "coordinates": [ 2689.6888427734375, 3172.3017578125 ] } },
{ "type": "Feature", "properties": { "confidence": 0.61193007, "tile_id": 0 }, "geometry": { "type": "Point", "coordinates": [ 2714.408284505208485, 1162.488067626953125 ] } },
{ "type": "Feature", "properties": { "confidence": 0.60876042, "tile_id": 0 }, "geometry": { "type": "Point", "coordinates": [ 1726.443400065104242, 1799.864089965820312 ] } },
{ "type": "Feature", "properties": { "confidence": 0.60450268, "tile_id": 0 }, "geometry": { "type": "Point", "coordinates": [ 1794.720377604166742, 3780.206573486328125 ] } },
{ "type": "Feature", "properties": { "confidence": 0.60057926, "tile_id": 0 }, "geometry": { "type": "Point", "coordinates": [ 1724.06572469075536, 1136.290538787841797 ] } },
{ "type": "Feature", "properties": { "confidence": 0.59709615, "tile_id": 0 }, "geometry": { "type": "Point", "coordinates": [ 2215.30265299479197, 1144.742286682128906 ] } },
{ "type": "Feature", "properties": { "confidence": 0.5927301, "tile_id": 0 }, "geometry": { "type": "Point", "coordinates": [ 2698.73649088541697, 1810.1099853515625 ] } },
{ "type": "Feature", "properties": { "confidence": 0.5855332, "tile_id": 0 }, "geometry": { "type": "Point", "coordinates": [ 3696.6474609375, 1145.158660888671875 ] } },
{ "type": "Feature", "properties": { "confidence": 0.56969529, "tile_id": 0 }, "geometry": { "type": "Point", "coordinates": [ 1080.818501790364735, 1802.568138122558594 ] } },
{ "type": "Feature", "properties": { "confidence": 0.55550694, "tile_id": 0 }, "geometry": { "type": "Point", "coordinates": [ 2706.998616536458485, 2508.600128173828125 ] } },
{ "type": "Feature", "properties": { "confidence": 0.55515069, "tile_id": 0 }, "geometry": { "type": "Point", "coordinates": [ 3718.3125, 1832.853782653808594 ] } },
{ "type": "Feature", "properties": { "confidence": 0.5508498, "tile_id": 0 }, "geometry": { "type": "Point", "coordinates": [ 2241.91153971354197, 3173.685539245605469 ] } },
{ "type": "Feature", "properties": { "confidence": 0.54355693, "tile_id": 0 }, "geometry": { "type": "Point", "coordinates": [ 4100.230224609375, 455.068588733673096 ] } },
{ "type": "Feature", "properties": { "confidence": 0.54128218, "tile_id": 0 }, "geometry": { "type": "Point", "coordinates": [ 217.263178507486998, 382.802498817443848 ] } },
{ "type": "Feature", "properties": { "confidence": 0.53278321, "tile_id": 0 }, "geometry": { "type": "Point", "coordinates": [ 3724.282552083333485, 3182.855499267578125 ] } },
{ "type": "Feature", "properties": { "confidence": 0.52897203, "tile_id": 0 }, "geometry": { "type": "Point", "coordinates": [ 3204.20890299479197, 3799.6455078125 ] } },
{ "type": "Feature", "properties": { "confidence": 0.52679992, "tile_id": 0 }, "geometry": { "type": "Point", "coordinates": [ 2731.03263346354197, 3805.288970947265625 ] } },
{ "type": "Feature", "properties": { "confidence": 0.51423758, "tile_id": 0 }, "geometry": { "type": "Point", "coordinates": [ 3680.910970052083485, 1234.947097778320312 ] } },
{ "type": "Feature", "properties": { "confidence": 0.49580815, "tile_id": 0 }, "geometry": { "type": "Point", "coordinates": [ 1025.280375162760492, 2465.939987182617188 ] } },
{ "type": "Feature", "properties": { "confidence": 0.48837537, "tile_id": 0 }, "geometry": { "type": "Point", "coordinates": [ 1714.399332682291742, 2484.154403686523438 ] } },
{ "type": "Feature", "properties": { "confidence": 0.48671919, "tile_id": 0 }, "geometry": { "type": "Point", "coordinates": [ 3210.7947998046875, 1822.656476974487305 ] } },
{ "type": "Feature", "properties": { "confidence": 0.47654855, "tile_id": 0 }, "geometry": { "type": "Point", "coordinates": [ 4130.19563802083394, 3787.602508544921875 ] } },
{ "type": "Feature", "properties": { "confidence": 0.47038242, "tile_id": 0 }, "geometry": { "type": "Point", "coordinates": [ 1091.407363891601562, 3766.069305419921875 ] } },
{ "type": "Feature", "properties": { "confidence": 0.46297348, "tile_id": 0 }, "geometry": { "type": "Point", "coordinates": [ 2200.670491536458485, 1833.986557006835938 ] } },
{ "type": "Feature", "properties": { "confidence": 0.45419547, "tile_id": 0 }, "geometry": { "type": "Point", "coordinates": [ 1118.8990478515625, 3134.757316589355469 ] } },
{ "type": "Feature", "properties": { "confidence": 0.44788796, "tile_id": 0 }, "geometry": { "type": "Point", "coordinates": [ 3731.003743489583485, 2516.408432006835938 ] } },
{ "type": "Feature", "properties": { "confidence": 0.44131786, "tile_id": 0 }, "geometry": { "type": "Point", "coordinates": [ 4119.170654296875, 1173.340976715087891 ] } },
{ "type": "Feature", "properties": { "confidence": 0.44044068, "tile_id": 0 }, "geometry": { "type": "Point", "coordinates": [ 2258.069173177083485, 3766.7353515625 ] } },
{ "type": "Feature", "properties": { "confidence": 0.43984583, "tile_id": 0 }, "geometry": { "type": "Point", "coordinates": [ 4091.49772135416697, 2525.239837646484375 ] } },
{ "type": "Feature", "properties": { "confidence": 0.43917841, "tile_id": 0 }, "geometry": { "type": "Point", "coordinates": [ 3701.09000651041697, 3800.540435791015625 ] } },
{ "type": "Feature", "properties": { "confidence": 0.42974696, "tile_id": 0 }, "geometry": { "type": "Point", "coordinates": [ 4135.84322102864644, 1854.633415222167969 ] } },
{ "type": "Feature", "properties": { "confidence": 0.42863855, "tile_id": 0 }, "geometry": { "type": "Point", "coordinates": [ 3232.804280598958485, 3169.592559814453125 ] } },
{ "type": "Feature", "properties": { "confidence": 0.42858717, "tile_id": 0 }, "geometry": { "type": "Point", "coordinates": [ 4114.83939615885447, 3222.9822998046875 ] } },
{ "type": "Feature", "properties": { "confidence": 0.40876937, "tile_id": 0 }, "geometry": { "type": "Point", "coordinates": [ 4134.7626953125, 3839.513290405273438 ] } },
{ "type": "Feature", "properties": { "confidence": 0.40718409, "tile_id": 0 }, "geometry": { "type": "Point", "coordinates": [ 162.717788696289062, 1805.744112014770508 ] } },
{ "type": "Feature", "properties": { "confidence": 0.39794338, "tile_id": 0 }, "geometry": { "type": "Point", "coordinates": [ 1686.519694010416742, 432.524288177490234 ] } },
{ "type": "Feature", "properties": { "confidence": 0.37640902, "tile_id": 0 }, "geometry": { "type": "Point", "coordinates": [ 4090.72216796875, 3157.074440002441406 ] } },
{ "type": "Feature", "properties": { "confidence": 0.36509514, "tile_id": 0 }, "geometry": { "type": "Point", "coordinates": [ 4113.51005045572947, 2541.847312927246094 ] } },
{ "type": "Feature", "properties": { "confidence": 0.33522707, "tile_id": 0 }, "geometry": { "type": "Point", "coordinates": [ 1227.429524739583485, 450.479305267333984 ] } },
{ "type": "Feature", "properties": { "confidence": 0.30495033, "tile_id": 0 }, "geometry": { "type": "Point", "coordinates": [ 1502.72412109375, 409.605253219604492 ] } },
{ "type": "Feature", "properties": { "confidence": 0.30463284, "tile_id": 0 }, "geometry": { "type": "Point", "coordinates": [ 3196.64298502604197, 531.672704696655273 ] } },
{ "type": "Feature", "properties": { "confidence": 0.28674752, "tile_id": 0 }, "geometry": { "type": "Point", "coordinates": [ 3708.26123046875, 1256.535614013671875 ] } },
{ "type": "Feature", "properties": { "confidence": 0.26127324, "tile_id": 0 }, "geometry": { "type": "Point", "coordinates": [ 2667.249267578125, 3758.697021484375 ] } },
{ "type": "Feature", "properties": { "confidence": 0.61497843, "tile_id": 1 }, "geometry": { "type": "Point", "coordinates": [ 4329.128890037536621, 480.709636688232422 ] } },
{ "type": "Feature", "properties": { "confidence": 0.60268474, "tile_id": 1 }, "geometry": { "type": "Point", "coordinates": [ 4318.734806060791016, 1173.473060607910156 ] } },
{ "type": "Feature", "properties": { "confidence": 0.59557861, "tile_id": 1 }, "geometry": { "type": "Point", "coordinates": [ 4339.217996597290039, 3795.473373413085938 ] } },
{ "type": "Feature", "properties": { "confidence": 0.59191477, "tile_id": 1 }, "geometry": { "type": "Point", "coordinates": [ 4702.724578857421875, 462.214661121368408 ] } },
{ "type": "Feature", "properties": { "confidence": 0.52593935, "tile_id": 1 }, "geometry": { "type": "Point", "coordinates": [ 5862.007522583007812, 482.806051254272461 ] } },
{ "type": "Feature", "properties": { "confidence": 0.51214296, "tile_id": 1 }, "geometry": { "type": "Point", "coordinates": [ 4323.501190185546875, 2515.403450012207031 ] } },
{ "type": "Feature", "properties": { "confidence": 0.44789019, "tile_id": 1 }, "geometry": { "type": "Point", "coordinates": [ 4327.564721584320068, 1154.699028015136719 ] } },
{ "type": "Feature", "properties": { "confidence": 0.42701557, "tile_id": 1 }, "geometry": { "type": "Point", "coordinates": [ 4314.8974952697763, 3190.85797119140625 ] } },
{ "type": "Feature", "properties": { "confidence": 0.4184458, "tile_id": 1 }, "geometry": { "type": "Point", "coordinates": [ 4676.657947540283203, 3189.288795471191406 ] } },
{ "type": "Feature", "properties": { "confidence": 0.38977355, "tile_id": 1 }, "geometry": { "type": "Point", "coordinates": [ 5174.514907836914062, 1841.52020263671875 ] } },
{ "type": "Feature", "properties": { "confidence": 0.38330308, "tile_id": 1 }, "geometry": { "type": "Point", "coordinates": [ 5157.064727783203125, 3762.341773986816406 ] } },
{ "type": "Feature", "properties": { "confidence": 0.38329348, "tile_id": 1 }, "geometry": { "type": "Point", "coordinates": [ 5959.483642578125, 1785.635650634765625 ] } },
{ "type": "Feature", "properties": { "confidence": 0.3649638, "tile_id": 1 }, "geometry": { "type": "Point", "coordinates": [ 5081.315689086914062, 1177.352130889892578 ] } },
{ "type": "Feature", "properties": { "confidence": 0.36329576, "tile_id": 1 }, "geometry": { "type": "Point", "coordinates": [ 4330.968321800231934, 1838.526046752929688 ] } },
{ "type": "Feature", "properties": { "confidence": 0.36166215, "tile_id": 1 }, "geometry": { "type": "Point", "coordinates": [ 5180.826026916503906, 3191.6041259765625 ] } },
{ "type": "Feature", "properties": { "confidence": 0.34402195, "tile_id": 1 }, "geometry": { "type": "Point", "coordinates": [ 5210.629219055175781, 456.310546875 ] } },
{ "type": "Feature", "properties": { "confidence": 0.32736275, "tile_id": 1 }, "geometry": { "type": "Point", "coordinates": [ 5292.028396606445312, 1180.392539978027344 ] } },
{ "type": "Feature", "properties": { "confidence": 0.32422668, "tile_id": 1 }, "geometry": { "type": "Point", "coordinates": [ 5666.798980712890625, 3226.194179534912109 ] } },
{ "type": "Feature", "properties": { "confidence": 0.32238606, "tile_id": 1 }, "geometry": { "type": "Point", "coordinates": [ 4325.692145347595215, 527.004802703857422 ] } },
{ "type": "Feature", "properties": { "confidence": 0.32022753, "tile_id": 1 }, "geometry": { "type": "Point", "coordinates": [ 5956.633941650390625, 1776.326072692871094 ] } },
{ "type": "Feature", "properties": { "confidence": 0.31830919, "tile_id": 1 }, "geometry": { "type": "Point", "coordinates": [ 4821.681003570556641, 1891.754043579101562 ] } },
{ "type": "Feature", "properties": { "confidence": 0.31525472, "tile_id": 1 }, "geometry": { "type": "Point", "coordinates": [ 5700.262405395507812, 1872.404802322387695 ] } },
{ "type": "Feature", "properties": { "confidence": 0.31410491, "tile_id": 1 }, "geometry": { "type": "Point", "coordinates": [ 4661.347770690917969, 3752.243316650390625 ] } },
{ "type": "Feature", "properties": { "confidence": 0.30999136, "tile_id": 1 }, "geometry": { "type": "Point", "coordinates": [ 4711.760395050048828, 2482.717979431152344 ] } },
{ "type": "Feature", "properties": { "confidence": 0.29751089, "tile_id": 1 }, "geometry": { "type": "Point", "coordinates": [ 5710.035655975341797, 1157.038581848144531 ] } },
{ "type": "Feature", "properties": { "confidence": 0.2939637, "tile_id": 1 }, "geometry": { "type": "Point", "coordinates": [ 5209.245239257813409, 1140.055740356445312 ] } },
{ "type": "Feature", "properties": { "confidence": 0.29009491, "tile_id": 1 }, "geometry": { "type": "Point", "coordinates": [ 5955.570465087891534, 2473.84442138671875 ] } },
{ "type": "Feature", "properties": { "confidence": 0.28179356, "tile_id": 1 }, "geometry": { "type": "Point", "coordinates": [ 4823.831161499023438, 1934.195030212402344 ] } },
{ "type": "Feature", "properties": { "confidence": 0.27874073, "tile_id": 1 }, "geometry": { "type": "Point", "coordinates": [ 5631.492935180664972, 3768.68695068359375 ] } },
{ "type": "Feature", "properties": { "confidence": 0.27047542, "tile_id": 1 }, "geometry": { "type": "Point", "coordinates": [ 5652.930648803710938, 484.827173233032227 ] } },
{ "type": "Feature", "properties": { "confidence": 0.2611261, "tile_id": 1 }, "geometry": { "type": "Point", "coordinates": [ 4686.609535217285156, 1851.907957077026367 ] } }
]
}
